SL-14 R/B               
1 21423U 91042B   25356.84394350  .00000411  00000+0  49057-4 0  9999
2 21423  82.4935 292.2484 0018234 130.0404 230.2413 14.81747517841694
ERS-1                   
1 21574U 91050A   25356.95557529  .00000296  00000+0  10954-3 0  9990
2 21574  98.7900   8.2657 0032964  70.6292 289.8453 14.39372207804696
ARIANE 40 R/B           
1 21610U 91050F   25357.05018132  .00000315  00000+0  10691-3 0  9995
2 21610  98.2150  47.1081 0002185 323.4126  36.6915 14.42821291807947
INTERCOSMOS 25          
1 21819U 91086A   25357.03803713  .00002104  00000+0  41900-3 0  9995
2 21819  82.6076 356.3458 1486358 282.1910  61.7036 12.11767396487403
SL-8 R/B                
1 21876U 92008B   25357.00565419  .00000121  00000+0  10878-3 0  9995
2 21876  82.9271 324.8101 0034535 351.3172  71.9257 13.75961252698876
SL-8 R/B                
1 21938U 92020B   25356.96266487  .00000139  00000+0  12844-3 0  9999
2 21938  82.9295 210.7262 0029553 149.8613 324.5555 13.75529688690587
USA 81                  
1 21949U 92023A   25357.02396007  .00000184  00000+0  60739-4 0  9991
2 21949  85.0079 175.6447 0001097  82.8308 277.3009 14.32330504 83819
COSMOS 2219             
1 22219U 92076A   25356.91108677  .00000279  00000+0  17099-3 0  9996
2 22219  71.0575 178.5696 0019289 312.9765  46.9740 14.14066164707521
SL-16 R/B               
1 22220U 92076B   25356.47075907  .00000198  00000+0  12276-3 0  9990
2 22220  71.0008 351.0332 0014296 221.0022 254.6556 14.16844519710895
COSMOS 2221             
1 22236U 92080A   25357.05302315  .00001918  00000+0  16919-3 0  9992
2 22236  82.5038 352.4532 0016291  90.1000 270.2088 14.95798710769332
SL-16 R/B               
1 22285U 92093B   25356.92070221  .00000022  00000+0  35820-4 0  9991
2 22285  71.0206 165.4239 0002456  38.0684 322.0612 14.15435258702297
COSMOS 2228             
1 22286U 92094A   25357.11939882  .00002161  00000+0  18618-3 0  9993
2 22286  82.5191 310.6023 0017352 194.2428 165.8308 14.96774863764600
