CCSDS_OMM_VERS = 2.0
CREATION_DATE  = 
ORIGINATOR     = 

OBJECT_NAME    = SL-14 R/B
OBJECT_ID      = 1991-042B
CENTER_NAME    = EARTH
REF_FRAME      = TEME
TIME_SYSTEM    = UTC
MEAN_ELEMENT_THEORY = SGP/SGP4

EPOCH          = 2025-12-22T20:15:16.718400
MEAN_MOTION    = 14.81747517
ECCENTRICITY   = .00182342
INCLINATION    = 82.4935
RA_OF_ASC_NODE = 292.2484
ARG_OF_PERICENTER = 130.0404
MEAN_ANOMALY   = 230.2413

EPHEMERIS_TYPE = 0
CLASSIFICATION_TYPE = U
NORAD_CAT_ID   = 21423
ELEMENT_SET_NO = 999
REV_AT_EPOCH   = 84169
BSTAR          = .49056861E-4
MEAN_MOTION_DOT = .411E-5
MEAN_MOTION_DDOT = 0

CCSDS_OMM_VERS = 2.0
CREATION_DATE  = 
ORIGINATOR     = 

OBJECT_NAME    = ERS-1
OBJECT_ID      = 1991-050A
CENTER_NAME    = EARTH
REF_FRAME      = TEME
TIME_SYSTEM    = UTC
MEAN_ELEMENT_THEORY = SGP/SGP4

EPOCH          = 2025-12-22T22:56:01.705056
MEAN_MOTION    = 14.39372207
ECCENTRICITY   = .0032964
INCLINATION    = 98.7900
RA_OF_ASC_NODE = 8.2657
ARG_OF_PERICENTER = 70.6292
MEAN_ANOMALY   = 289.8453

EPHEMERIS_TYPE = 0
CLASSIFICATION_TYPE = U
NORAD_CAT_ID   = 21574
ELEMENT_SET_NO = 999
REV_AT_EPOCH   = 80469
BSTAR          = .10954E-3
MEAN_MOTION_DOT = .296E-5
MEAN_MOTION_DDOT = 0

CCSDS_OMM_VERS = 2.0
CREATION_DATE  = 
ORIGINATOR     = 

OBJECT_NAME    = ARIANE 40 R/B
OBJECT_ID      = 1991-050F
CENTER_NAME    = EARTH
REF_FRAME      = TEME
TIME_SYSTEM    = UTC
MEAN_ELEMENT_THEORY = SGP/SGP4

EPOCH          = 2025-12-23T01:12:15.666048
MEAN_MOTION    = 14.42821291
ECCENTRICITY   = .0002185
INCLINATION    = 98.2150
RA_OF_ASC_NODE = 47.1081
ARG_OF_PERICENTER = 323.4126
MEAN_ANOMALY   = 36.6915

EPHEMERIS_TYPE = 0
CLASSIFICATION_TYPE = U
NORAD_CAT_ID   = 21610
ELEMENT_SET_NO = 999
REV_AT_EPOCH   = 80794
BSTAR          = .10691E-3
MEAN_MOTION_DOT = .315E-5
MEAN_MOTION_DDOT = 0

CCSDS_OMM_VERS = 2.0
CREATION_DATE  = 
ORIGINATOR     = 

OBJECT_NAME    = INTERCOSMOS 25
OBJECT_ID      = 1991-086A
CENTER_NAME    = EARTH
REF_FRAME      = TEME
TIME_SYSTEM    = UTC
MEAN_ELEMENT_THEORY = SGP/SGP4

EPOCH          = 2025-12-23T00:54:46.408032
MEAN_MOTION    = 12.11767396
ECCENTRICITY   = .1486358
INCLINATION    = 82.6076
RA_OF_ASC_NODE = 356.3458
ARG_OF_PERICENTER = 282.1910
MEAN_ANOMALY   = 61.7036

EPHEMERIS_TYPE = 0
CLASSIFICATION_TYPE = U
NORAD_CAT_ID   = 21819
ELEMENT_SET_NO = 999
REV_AT_EPOCH   = 48740
BSTAR          = .419E-3
MEAN_MOTION_DOT = .2104E-4
MEAN_MOTION_DDOT = 0

CCSDS_OMM_VERS = 2.0
CREATION_DATE  = 
ORIGINATOR     = 

OBJECT_NAME    = SL-8 R/B
OBJECT_ID      = 1992-008B
CENTER_NAME    = EARTH
REF_FRAME      = TEME
TIME_SYSTEM    = UTC
MEAN_ELEMENT_THEORY = SGP/SGP4

EPOCH          = 2025-12-23T00:08:08.522016
MEAN_MOTION    = 13.75961252
ECCENTRICITY   = .0034535
INCLINATION    = 82.9271
RA_OF_ASC_NODE = 324.8101
ARG_OF_PERICENTER = 351.3172
MEAN_ANOMALY   = 71.9257

EPHEMERIS_TYPE = 0
CLASSIFICATION_TYPE = U
NORAD_CAT_ID   = 21876
ELEMENT_SET_NO = 999
REV_AT_EPOCH   = 69887
BSTAR          = .10878E-3
MEAN_MOTION_DOT = .121E-5
MEAN_MOTION_DDOT = 0

CCSDS_OMM_VERS = 2.0
CREATION_DATE  = 
ORIGINATOR     = 

OBJECT_NAME    = SL-8 R/B
OBJECT_ID      = 1992-020B
CENTER_NAME    = EARTH
REF_FRAME      = TEME
TIME_SYSTEM    = UTC
MEAN_ELEMENT_THEORY = SGP/SGP4

EPOCH          = 2025-12-22T23:06:14.244768
MEAN_MOTION    = 13.75529688
ECCENTRICITY   = .0029553
INCLINATION    = 82.9295
RA_OF_ASC_NODE = 210.7262
ARG_OF_PERICENTER = 149.8613
MEAN_ANOMALY   = 324.5555

EPHEMERIS_TYPE = 0
CLASSIFICATION_TYPE = U
NORAD_CAT_ID   = 21938
ELEMENT_SET_NO = 999
REV_AT_EPOCH   = 69058
BSTAR          = .12844E-3
MEAN_MOTION_DOT = .139E-5
MEAN_MOTION_DDOT = 0

CCSDS_OMM_VERS = 2.0
CREATION_DATE  = 
ORIGINATOR     = 

OBJECT_NAME    = USA 81
OBJECT_ID      = 1992-023A
CENTER_NAME    = EARTH
REF_FRAME      = TEME
TIME_SYSTEM    = UTC
MEAN_ELEMENT_THEORY = SGP/SGP4

EPOCH          = 2025-12-23T00:34:30.150048
MEAN_MOTION    = 14.32330504
ECCENTRICITY   = .0001097
INCLINATION    = 85.0079
RA_OF_ASC_NODE = 175.6447
ARG_OF_PERICENTER = 82.8308
MEAN_ANOMALY   = 277.3009

EPHEMERIS_TYPE = 0
CLASSIFICATION_TYPE = U
NORAD_CAT_ID   = 21949
ELEMENT_SET_NO = 999
REV_AT_EPOCH   = 8381
BSTAR          = .60739E-4
MEAN_MOTION_DOT = .184E-5
MEAN_MOTION_DDOT = 0

CCSDS_OMM_VERS = 2.0
CREATION_DATE  = 
ORIGINATOR     = 

OBJECT_NAME    = COSMOS 2219
OBJECT_ID      = 1992-076A
CENTER_NAME    = EARTH
REF_FRAME      = TEME
TIME_SYSTEM    = UTC
MEAN_ELEMENT_THEORY = SGP/SGP4

EPOCH          = 2025-12-22T21:51:57.896928
MEAN_MOTION    = 14.14066164
ECCENTRICITY   = .0019289
INCLINATION    = 71.0575
RA_OF_ASC_NODE = 178.5696
ARG_OF_PERICENTER = 312.9765
MEAN_ANOMALY   = 46.9740

EPHEMERIS_TYPE = 0
CLASSIFICATION_TYPE = U
NORAD_CAT_ID   = 22219
ELEMENT_SET_NO = 999
REV_AT_EPOCH   = 70752
BSTAR          = .17099E-3
MEAN_MOTION_DOT = .279E-5
MEAN_MOTION_DDOT = 0

CCSDS_OMM_VERS = 2.0
CREATION_DATE  = 
ORIGINATOR     = 

OBJECT_NAME    = SL-16 R/B
OBJECT_ID      = 1992-076B
CENTER_NAME    = EARTH
REF_FRAME      = TEME
TIME_SYSTEM    = UTC
MEAN_ELEMENT_THEORY = SGP/SGP4

EPOCH          = 2025-12-22T11:17:53.583648
MEAN_MOTION    = 14.16844519
ECCENTRICITY   = .00142968
INCLINATION    = 71.0008
RA_OF_ASC_NODE = 351.0332
ARG_OF_PERICENTER = 221.0022
MEAN_ANOMALY   = 254.6556

EPHEMERIS_TYPE = 0
CLASSIFICATION_TYPE = U
NORAD_CAT_ID   = 22220
ELEMENT_SET_NO = 999
REV_AT_EPOCH   = 71089
BSTAR          = .12276436E-3
MEAN_MOTION_DOT = .198E-5
MEAN_MOTION_DDOT = 0

CCSDS_OMM_VERS = 2.0
CREATION_DATE  = 
ORIGINATOR     = 

OBJECT_NAME    = COSMOS 2221
OBJECT_ID      = 1992-080A
CENTER_NAME    = EARTH
REF_FRAME      = TEME
TIME_SYSTEM    = UTC
MEAN_ELEMENT_THEORY = SGP/SGP4

EPOCH          = 2025-12-23T01:16:21.200160
MEAN_MOTION    = 14.95798710
ECCENTRICITY   = .0016291
INCLINATION    = 82.5038
RA_OF_ASC_NODE = 352.4532
ARG_OF_PERICENTER = 90.1000
MEAN_ANOMALY   = 270.2088

EPHEMERIS_TYPE = 0
CLASSIFICATION_TYPE = U
NORAD_CAT_ID   = 22236
ELEMENT_SET_NO = 999
REV_AT_EPOCH   = 76933
BSTAR          = .16919E-3
MEAN_MOTION_DOT = .1918E-4
MEAN_MOTION_DDOT = 0

CCSDS_OMM_VERS = 2.0
CREATION_DATE  = 
ORIGINATOR     = 

OBJECT_NAME    = SL-16 R/B
OBJECT_ID      = 1992-093B
CENTER_NAME    = EARTH
REF_FRAME      = TEME
TIME_SYSTEM    = UTC
MEAN_ELEMENT_THEORY = SGP/SGP4

EPOCH          = 2025-12-22T22:05:48.670944
MEAN_MOTION    = 14.15435258
ECCENTRICITY   = .0002456
INCLINATION    = 71.0206
RA_OF_ASC_NODE = 165.4239
ARG_OF_PERICENTER = 38.0684
MEAN_ANOMALY   = 322.0612

EPHEMERIS_TYPE = 0
CLASSIFICATION_TYPE = U
NORAD_CAT_ID   = 22285
ELEMENT_SET_NO = 999
REV_AT_EPOCH   = 70229
BSTAR          = .3582E-4
MEAN_MOTION_DOT = .22E-6
MEAN_MOTION_DDOT = 0

CCSDS_OMM_VERS = 2.0
CREATION_DATE  = 
ORIGINATOR     = 

OBJECT_NAME    = COSMOS 2228
OBJECT_ID      = 1992-094A
CENTER_NAME    = EARTH
REF_FRAME      = TEME
TIME_SYSTEM    = UTC
MEAN_ELEMENT_THEORY = SGP/SGP4

EPOCH          = 2025-12-23T02:51:56.058048
MEAN_MOTION    = 14.96774863
ECCENTRICITY   = .0017352
INCLINATION    = 82.5191
RA_OF_ASC_NODE = 310.6023
ARG_OF_PERICENTER = 194.2428
MEAN_ANOMALY   = 165.8308

EPHEMERIS_TYPE = 0
CLASSIFICATION_TYPE = U
NORAD_CAT_ID   = 22286
ELEMENT_SET_NO = 999
REV_AT_EPOCH   = 76460
BSTAR          = .18618E-3
MEAN_MOTION_DOT = .2161E-4
MEAN_MOTION_DDOT = 0

